NORAD_CAT_ID,OBJECT_NAME,OBJECT_TYPE,EPOCH,MEAN_MOTION,ECCENTRICITY,INCLINATION,RA_OF_ASC_NODE,ARG_OF_PERICENTER,MEAN_ANOMALY,BSTAR,MEAN_MOTION_DOT,MEAN_MOTION_DDOT,TLE_LINE0,TLE_LINE1,TLE_LINE2,SEMIMAJOR_AXIS,PERIOD,APOGEE,PERIGEE,DECAYED
49724.0,STARLINK-3219,PAYLOAD,2022-07-18 12:45:01,15.08833189,0.0001515,53.2179,0.4308,53.3058,306.8073,-0.00010221,-1.914e-05,0.0,0 STARLINK-3219,1 49724U 21115A   22199.53127225 -.00001914  00000-0 -10221-3 0  9992,2 49724  53.2179   0.4308 0001515  53.3058 306.8073 15.08833189 35838,6917.901,95.438,540.814,538.7180000000002,0.0
49724.0,STARLINK-3219,PAYLOAD,2022-07-18 20:41:57,15.08840615,0.0001567,53.2185,358.9443,57.8673,302.2471,-8.4265e-06,-4.22e-06,0.0,0 STARLINK-3219,1 49724U 21115A   22199.86247229 -.00000422  00000-0 -84265-5 0  9999,2 49724  53.2185 358.9443 0001567  57.8673 302.2471 15.08840615 34771,6917.879,95.438,540.828,538.659,0.0
49724.0,STARLINK-3219,PAYLOAD,2022-07-19 11:00:25,15.08846017,0.0001468,53.2186,356.2679,55.6161,304.497,0.00011155,1.488e-05,0.0,0 STARLINK-3219,1 49724U 21115A   22200.45862509  .00001488  00000-0  11155-3 0  9998,2 49724  53.2186 356.2679 0001468  55.6161 304.4970 15.08846017 35975,6917.861999999999,95.437,540.743,538.711,0.0
49724.0,STARLINK-3219,PAYLOAD,2022-07-19 20:32:44,15.08839822,0.0001488,53.2185,354.4835,56.9763,303.1372,0.00013486,1.859e-05,0.0,0 STARLINK-3219,1 49724U 21115A   22200.85606928  .00001859  00000-0  13486-3 0  9994,2 49724  53.2185 354.4835 0001488  56.9763 303.1372 15.08839822 36038,6917.880999999999,95.438,540.775,538.717,0.0
49724.0,STARLINK-3219,PAYLOAD,2022-07-20 14:01:59,15.0883589,0.0001498,53.2187,351.213,55.492,304.6213,0.00010879,1.444e-05,0.0,0 STARLINK-3219,1 49724U 21115A   22201.58471424  .00001444  00000-0  10879-3 0  9999,2 49724  53.2187 351.2130 0001498  55.4920 304.6213 15.08835890 35033,6917.893,95.438,540.794,538.722,0.0
49724.0,STARLINK-3219,PAYLOAD,2022-07-20 18:48:09,15.08830293,0.0001626,53.2189,350.3219,51.5143,308.5995,6.0492e-05,6.75e-06,0.0,0 STARLINK-3219,1 49724U 21115A   22201.78344040  .00000675  00000-0  60492-4 0  9996,2 49724  53.2189 350.3219 0001626  51.5143 308.5995 15.08830293 36178,6917.91,95.438,540.9,538.65,0.0
49724.0,STARLINK-3219,PAYLOAD,2022-07-21 09:06:37,15.08834869,0.0001376999999999,53.2185,347.6439,59.8431,300.2697,1.793e-05,-3e-08,0.0,0 STARLINK-3219,1 49724U 21115A   22202.37959975 -.00000003  00000-0  17930-4 0  9996,2 49724  53.2185 347.6439 0001377  59.8431 300.2697 15.08834869 35159,6917.896,95.438,540.714,538.808,0.0
49724.0,STARLINK-3219,PAYLOAD,2022-07-21 13:52:47,15.08830497,0.0001578,53.2187,346.7523,55.8408,304.2734,3.884e-05,3.3e-06,0.0,0 STARLINK-3219,1 49724U 21115A   22202.57832414  .00000330  00000-0  38840-4 0  9991,2 49724  53.2187 346.7523 0001578  55.8408 304.2734 15.08830497 35180,6917.909000000002,95.438,540.866,538.683,0.0
49724.0,STARLINK-3219,PAYLOAD,2022-07-22 02:35:52,15.08831583,0.0001568,53.2188,344.3731,55.8603,304.2538,-2.9733e-06,-3.35e-06,0.0,0 STARLINK-3219,1 49724U 21115A   22203.10824765 -.00000335  00000-0 -29733-5 0  9990,2 49724  53.2188 344.3731 0001568  55.8603 304.2538 15.08831583 35260,6917.906,95.438,540.856,538.686,0.0
49724.0,STARLINK-3219,PAYLOAD,2022-07-22 08:57:24,15.0883772,0.0001565999999999,53.2188,343.1832,55.7706,304.3434,3.1115e-05,2.07e-06,0.0,0 STARLINK-3219,1 49724U 21115A   22203.37320447  .00000207  00000-0  31115-4 0  9999,2 49724  53.2188 343.1832 0001566  55.7706 304.3434 15.08837720 36413,6917.887,95.438,540.836,538.669,0.0
49724.0,STARLINK-3219,PAYLOAD,2022-07-23 02:26:38,15.08845495,0.0001549,53.2186,339.9128,59.275,300.8395,0.00026583,3.946e-05,0.0,0 STARLINK-3219,1 49724U 21115A   22204.10183612  .00003946  00000-0  26583-3 0  9997,2 49724  53.2186 339.9128 0001549  59.2750 300.8395 15.08845495 36528,6917.864000000001,95.437,540.8,538.6569999999998,0.0
49724.0,STARLINK-3219,PAYLOAD,2022-07-23 13:34:20,15.08846706,0.0001629,53.2196,337.8323,59.3254,300.7899,7.5125e-05,9.08e-06,0.0,0 STARLINK-3219,1 49724U 21115A   22204.56551934  .00000908  00000-0  75125-4 0  9995,2 49724  53.2196 337.8323 0001629  59.3254 300.7899 15.08846706 35480,6917.86,95.437,540.852,538.5980000000002,0.0
49724.0,STARLINK-3219,PAYLOAD,2022-07-23 15:09:44,15.0884133,0.0001721999999999,53.2185,337.535,61.0926,299.0239,0.00025389,3.755e-05,0.0,0 STARLINK-3219,1 49724U 21115A   22204.63176386  .00003755  00000-0  25389-3 0  9996,2 49724  53.2185 337.5350 0001722  61.0926 299.0239 15.08841330 36606,6917.876,95.437,540.933,538.55,0.0
49724.0,STARLINK-3219,PAYLOAD,2022-07-23 18:20:30,15.08844076,0.000174,53.2181,336.9401,57.2321,302.8838,0.00025785,3.818e-05,0.0,0 STARLINK-3219,1 49724U 21115A   22204.76424261  .00003818  00000-0  25785-3 0  9998,2 49724  53.2181 336.9401 0001740  57.2321 302.8838 15.08844076 35515,6917.868,95.437,540.937,538.529,0.0
49724.0,STARLINK-3219,PAYLOAD,2022-07-24 13:25:07,15.08846042,0.0001737,53.2175,333.3714,59.9948,300.1216,6.641399999999999e-05,7.69e-06,0.0,0 STARLINK-3219,1 49724U 21115A   22205.55911744  .00000769  00000-0  66414-4 0  9990,2 49724  53.2175 333.3714 0001737  59.9948 300.1216 15.08846042 35635,6917.861999999999,95.437,540.929,538.525,0.0
49724.0,STARLINK-3219,PAYLOAD,2022-07-24 15:00:30,15.088467800000002,0.0001725,53.2178,333.074,60.2245,299.8918,0.00010569,1.395e-05,0.0,0 STARLINK-3219,1 49724U 21115A   22205.62535761  .00001395  00000-0  10569-3 0  9994,2 49724  53.2178 333.0740 0001725  60.2245 299.8918 15.08846780 35649,6917.86,95.437,540.918,538.531,0.0
49724.0,STARLINK-3219,PAYLOAD,2022-07-25 02:08:13,15.08839346,0.0001764999999999,53.2177,330.9924,57.7977,302.3186,-6.9994e-05,-1.402e-05,0.0,0 STARLINK-3219,1 49724U 21115A   22206.08904017 -.00001402  00000-0 -69994-4 0  9997,2 49724  53.2177 330.9924 0001765  57.7977 302.3186 15.08839346 36823,6917.882,95.438,540.9680000000002,538.526,0.0
49724.0,STARLINK-3219,PAYLOAD,2022-07-25 11:40:32,15.08829542,0.0001557,53.2178,329.2066,76.0107,284.1058,-5.0042e-06,-3.68e-06,0.0,0 STARLINK-3219,1 49724U 21115A   22206.48648960 -.00000368  00000-0 -50042-5 0  9998,2 49724  53.2178 329.2066 0001557  76.0107 284.1058 15.08829542 35775,6917.9119999999975,95.438,540.854,538.7,0.0
49724.0,STARLINK-3219,PAYLOAD,2022-07-25 18:02:06,15.08821124,0.0001691,53.2186,328.0193,60.4337,299.6824,-0.00014484,-2.591e-05,0.0,0 STARLINK-3219,1 49724U 21115A   22206.75146037 -.00002591  00000-0 -14484-3 0  9994,2 49724  53.2186 328.0193 0001691  60.4337 299.6824 15.08821124 36921,6917.938,95.439,540.9730000000002,538.633,0.0
49724.0,STARLINK-3219,PAYLOAD,2022-07-25 19:37:29,15.08822362,0.0001699,53.2185,327.7221,59.0939,301.022,-0.00012409,-2.261e-05,0.0,0 STARLINK-3219,1 49724U 21115A   22206.81769945 -.00002261  00000-0 -12409-3 0  9999,2 49724  53.2185 327.7221 0001699  59.0939 301.0220 15.08822362 35829,6917.934,95.439,540.975,538.624,0.0
49724.0,STARLINK-3219,PAYLOAD,2022-07-26 13:06:43,15.08825155,0.0001655,53.2186,324.4513,56.9727,303.1424,-8.194e-05,-1.591e-05,0.0,0 STARLINK-3219,1 49724U 21115A   22207.54634239 -.00001591  00000-0 -81940-4 0  9999,2 49724  53.2186 324.4513 0001655  56.9727 303.1424 15.08825155 35935,6917.926,95.438,540.936,538.646,0.0
49724.0,STARLINK-3219,PAYLOAD,2022-07-26 17:52:53,15.08823945,0.000167,53.2186,323.5594,57.7757,302.3396,-5.0367e-05,-1.089e-05,0.0,0 STARLINK-3219,1 49724U 21115A   22207.74506415 -.00001089  00000-0 -50367-4 0  9996,2 49724  53.2186 323.5594 0001670  57.7757 302.3396 15.08823945 35960,6917.929,95.439,540.95,538.639,0.0
49724.0,STARLINK-3219,PAYLOAD,2022-07-27 12:57:31,15.08821909,0.0001662,53.2183,319.991,55.2471,304.8677,0.00012073,1.633e-05,0.0,0 STARLINK-3219,1 49724U 21115A   22208.53994841  .00001633  00000-0  12073-3 0  9992,2 49724  53.2183 319.9910 0001662  55.2471 304.8677 15.08821909 36086,6917.936,95.439,540.95,538.651,0.0
49724.0,STARLINK-3219,PAYLOAD,2022-07-27 14:32:54,15.08822648,0.0001662,53.2183,319.6937,55.2834,304.8315,0.00012511,1.703e-05,0.0,0 STARLINK-3219,1 49724U 21115A   22208.60618866  .00001703  00000-0  12511-3 0  9995,2 49724  53.2183 319.6937 0001662  55.2834 304.8315 15.08822648 36096,6917.933000000001,95.439,540.948,538.649,0.0
49724.0,STARLINK-3219,PAYLOAD,2022-07-28 11:12:55,15.08835318,0.0001659,53.2181,315.8282,56.3194,303.7957,0.00014157,1.965e-05,0.0,0 STARLINK-3219,1 49724U 21115A   22209.46730779  .00001965  00000-0  14157-3 0  9996,2 49724  53.2181 315.8282 0001659  56.3194 303.7957 15.08835318 36225,6917.895,95.438,540.9069999999998,538.612,0.0
49724.0,STARLINK-3219,PAYLOAD,2022-07-28 17:34:27,15.08838622,0.0001683,53.2181,314.6387,56.13800000000001,303.9772,0.0001591,2.245e-05,0.0,0 STARLINK-3219,1 49724U 21115A   22209.73226608  .00002245  00000-0  15910-3 0  9997,2 49724  53.2181 314.6387 0001683  56.1380 303.9772 15.08838622 37375,6917.885,95.438,540.914,538.585,0.0
49724.0,STARLINK-3219,PAYLOAD,2022-07-29 07:52:55,15.08846147,0.0001665,53.2181,311.9622,56.5362,303.579,0.00014835,2.074e-05,0.0,0 STARLINK-3219,1 49724U 21115A   22210.32842079  .00002074  00000-0  14835-3 0  9995,2 49724  53.2181 311.9622 0001665  56.5362 303.5790 15.08846147 36355,6917.861999999999,95.437,540.878,538.575,0.0
49724.0,STARLINK-3219,PAYLOAD,2022-07-29 12:39:04,15.08850358,0.000167,53.2182,311.07,56.4082,303.7069,0.00013593,1.877e-05,0.0,0 STARLINK-3219,1 49724U 21115A   22210.52713768  .00001877  00000-0  13593-3 0  9999,2 49724  53.2182 311.0700 0001670  56.4082 303.7069 15.08850358 36381,6917.849,95.437,540.869,538.558,0.0
49724.0,STARLINK-3219,PAYLOAD,2022-07-30 12:29:51,15.08847479,0.0001696,53.2181,306.6097,57.6954,302.4202,4.123100000000001e-05,3.68e-06,0.0,0 STARLINK-3219,1 49724U 21115A   22211.52073619  .00000368  00000-0  41231-4 0  9999,2 49724  53.2181 306.6097 0001696  57.6954 302.4202 15.08847479 37643,6917.858,95.437,540.896,538.549,0.0
